start=new Date('2023-05-11T00:00:00.000Z').valueOf();
sats=[{"SITE":"AFETR","MEAN_ELEMENT_THEORY":"SGP4","MEAN_ANOMALY":"266.9953","DECAY_DATE":null,"BSTAR":"0.00031790000000","INCLINATION":"53.0533","TLE_LINE2":"2 46673  53.0533 219.2973 0001143  93.1167 266.9953 15.06380236141040","REV_AT_EPOCH":"14104","PERIOD":"95.593","MEAN_MOTION":"15.06380236","SEMIMAJOR_AXIS":"6925.409","ECCENTRICITY":"0.00011430","OBJECT_NAME":"STARLINK-1717","ARG_OF_PERICENTER":"93.1167","PERIAPSIS":"546.483","LAUNCH_DATE":"2020-10-18","EPHEMERIS_TYPE":"0","ELEMENT_SET_NO":"999","EPOCH":"2023-05-10T12:33:49.284576","CENTER_NAME":"EARTH","OBJECT_TYPE":"PAYLOAD","COUNTRY_CODE":"US","APOAPSIS":"548.066","TLE_LINE1":"1 46673U 20073D   23130.52348709  .00004454  00000-0  31790-3 0  9995","FILE":"3904555","REF_FRAME":"TEME","OBJECT_ID":"2020-073D","MEAN_MOTION_DDOT":"0.0000000000000","GP_ID":"231530225","RCS_SIZE":"LARGE","CLASSIFICATION_TYPE":"U","RA_OF_ASC_NODE":"219.2973","TIME_SYSTEM":"UTC","MEAN_MOTION_DOT":"0.00004454","NORAD_CAT_ID":"46673"},{"FILE":"3904555","TLE_LINE1":"1 46674U 20073E   23130.43453942  .00026183  00000-0  17710-2 0  9990","APOAPSIS":"548.114","COUNTRY_CODE":"US","OBJECT_TYPE":"PAYLOAD","CENTER_NAME":"EARTH","RCS_SIZE":"LARGE","GP_ID":"231530472","MEAN_MOTION_DDOT":"0.0000000000000","OBJECT_ID":"2020-073E","REF_FRAME":"TEME","NORAD_CAT_ID":"46674","MEAN_MOTION_DOT":"0.00026183","TIME_SYSTEM":"UTC","RA_OF_ASC_NODE":"204.5731","CLASSIFICATION_TYPE":"U","MEAN_ANOMALY":"249.2699","DECAY_DATE":null,"MEAN_ELEMENT_THEORY":"SGP4","SITE":"AFETR","MEAN_MOTION":"15.06381507","PERIOD":"95.593","REV_AT_EPOCH":"14124","TLE_LINE2":"2 46674  53.0522 204.5731 0001219 110.8420 249.2699 15.06381507141246","INCLINATION":"53.0522","BSTAR":"0.00177100000000","PERIAPSIS":"546.426","ARG_OF_PERICENTER":"110.8420","SEMIMAJOR_AXIS":"6925.405","OBJECT_NAME":"STARLINK-1718","ECCENTRICITY":"0.00012190","EPOCH":"2023-05-10T10:25:44.205888","ELEMENT_SET_NO":"999","EPHEMERIS_TYPE":"0","LAUNCH_DATE":"2020-10-18"},{"MEAN_MOTION_DOT":"0.00026298","NORAD_CAT_ID":"46675","TIME_SYSTEM":"UTC","CLASSIFICATION_TYPE":"U","RA_OF_ASC_NODE":"202.5026","RCS_SIZE":"LARGE","MEAN_MOTION_DDOT":"0.0000000000000","GP_ID":"231564604","REF_FRAME":"TEME","OBJECT_ID":"2020-073F","FILE":"3904830","APOAPSIS":"547.911","TLE_LINE1":"1 46675U 20073F   23130.89531347  .00026298  00000-0  17756-2 0  9994","OBJECT_TYPE":"PAYLOAD","CENTER_NAME":"EARTH","COUNTRY_CODE":"US","EPOCH":"2023-05-10T21:29:15.083808","ELEMENT_SET_NO":"999","EPHEMERIS_TYPE":"0","LAUNCH_DATE":"2020-10-18","PERIAPSIS":"546.234","ARG_OF_PERICENTER":"91.0619","ECCENTRICITY":"0.00012110","SEMIMAJOR_AXIS":"6925.207","OBJECT_NAME":"STARLINK-1720","PERIOD":"95.589","MEAN_MOTION":"15.06446119","TLE_LINE2":"2 46675  53.0527 202.5026 0001211  91.0619 269.0509 15.06446119141318","REV_AT_EPOCH":"14131","INCLINATION":"53.0527","BSTAR":"0.00177560000000","MEAN_ELEMENT_THEORY":"SGP4","MEAN_ANOMALY":"269.0509","DECAY_DATE":null,"SITE":"AFETR"},{"TIME_SYSTEM":"UTC","MEAN_MOTION_DOT":"0.00027219","NORAD_CAT_ID":"46677","CLASSIFICATION_TYPE":"U","RA_OF_ASC_NODE":"202.5163","RCS_SIZE":"LARGE","REF_FRAME":"TEME","OBJECT_ID":"2020-073H","MEAN_MOTION_DDOT":"0.0000000000000","GP_ID":"231563354","FILE":"3904830","CENTER_NAME":"EARTH","OBJECT_TYPE":"PAYLOAD","COUNTRY_CODE":"US","APOAPSIS":"548.052","TLE_LINE1":"1 46677U 20073H   23130.89160974  .00027219  00000-0  18390-2 0  9999","ELEMENT_SET_NO":"999","EPOCH":"2023-05-10T21:23:55.081536","LAUNCH_DATE":"2020-10-18","EPHEMERIS_TYPE":"0","PERIAPSIS":"546.357","ECCENTRICITY":"0.00012240","SEMIMAJOR_AXIS":"6925.339","OBJECT_NAME":"STARLINK-1766","ARG_OF_PERICENTER":"108.7585","TLE_LINE2":"2 46677  53.0527 202.5163 0001224 108.7585 251.3537 15.06403029141312","REV_AT_EPOCH":"14131","PERIOD":"95.592","MEAN_MOTION":"15.06403029","BSTAR":"0.00183900000000","INCLINATION":"53.0527","SITE":"AFETR","MEAN_ELEMENT_THEORY":"SGP4","MEAN_ANOMALY":"251.3537","DECAY_DATE":null},{"RCS_SIZE":"LARGE","MEAN_MOTION_DDOT":"0.0000000000000","GP_ID":"231530726","REF_FRAME":"TEME","OBJECT_ID":"2020-073K","MEAN_MOTION_DOT":"0.00023482","NORAD_CAT_ID":"46679","TIME_SYSTEM":"UTC","CLASSIFICATION_TYPE":"U","RA_OF_ASC_NODE":"184.5803","FILE":"3904555","APOAPSIS":"548.016","TLE_LINE1":"1 46679U 20073K   23130.43270268  .00023482  00000-0  15906-2 0  9997","OBJECT_TYPE":"PAYLOAD","CENTER_NAME":"EARTH","COUNTRY_CODE":"US","PERIAPSIS":"546.489","ARG_OF_PERICENTER":"89.3268","SEMIMAJOR_AXIS":"6925.388","OBJECT_NAME":"STARLINK-1773","ECCENTRICITY":"0.00011020","EPOCH":"2023-05-10T10:23:05.511552","ELEMENT_SET_NO":"999","EPHEMERIS_TYPE":"0","LAUNCH_DATE":"2020-10-18","MEAN_ELEMENT_THEORY":"SGP4","MEAN_ANOMALY":"270.7847","DECAY_DATE":null,"SITE":"AFETR","PERIOD":"95.593","MEAN_MOTION":"15.06387275","TLE_LINE2":"2 46679  53.0525 184.5803 0001102  89.3268 270.7847 15.06387275141525","REV_AT_EPOCH":"14152","INCLINATION":"53.0525","BSTAR":"0.00159060000000"},{"NORAD_CAT_ID":"46680","MEAN_MOTION_DOT":"0.00028884","TIME_SYSTEM":"UTC","RA_OF_ASC_NODE":"218.9710","CLASSIFICATION_TYPE":"U","RCS_SIZE":"LARGE","GP_ID":"231563854","MEAN_MOTION_DDOT":"0.0000000000000","OBJECT_ID":"2020-073L","REF_FRAME":"TEME","FILE":"3904830","TLE_LINE1":"1 46680U 20073L   23130.56770123  .00028884  00000-0  19515-2 0  9999","APOAPSIS":"548.248","COUNTRY_CODE":"US","OBJECT_TYPE":"PAYLOAD","CENTER_NAME":"EARTH","EPOCH":"2023-05-10T13:37:29.386272","ELEMENT_SET_NO":"999","EPHEMERIS_TYPE":"0","LAUNCH_DATE":"2020-10-18","PERIAPSIS":"546.347","ARG_OF_PERICENTER":"68.2612","ECCENTRICITY":"0.00013730","SEMIMAJOR_AXIS":"6925.433","OBJECT_NAME":"STARLINK-1774","MEAN_MOTION":"15.06372593","PERIOD":"95.594","REV_AT_EPOCH":"14105","TLE_LINE2":"2 46680  53.0529 218.9710 0001373  68.2612 291.8523 15.06372593141059","INCLINATION":"53.0529","BSTAR":"0.00195150000000","DECAY_DATE":null,"MEAN_ANOMALY":"291.8523","MEAN_ELEMENT_THEORY":"SGP4","SITE":"AFETR"},{"EPHEMERIS_TYPE":"0","LAUNCH_DATE":"2020-10-18","EPOCH":"2023-05-10T16:06:05.995872","ELEMENT_SET_NO":"999","ARG_OF_PERICENTER":"113.7284","SEMIMAJOR_AXIS":"6925.412","ECCENTRICITY":"0.00012250","OBJECT_NAME":"STARLINK-1775","PERIAPSIS":"546.429","INCLINATION":"53.0528","BSTAR":"0.00143010000000","MEAN_MOTION":"15.06379173","PERIOD":"95.593","REV_AT_EPOCH":"14106","TLE_LINE2":"2 46681  53.0528 218.5066 0001225 113.7284 246.3834 15.06379173141068","DECAY_DATE":null,"MEAN_ANOMALY":"246.3834","MEAN_ELEMENT_THEORY":"SGP4","SITE":"AFETR","RA_OF_ASC_NODE":"218.5066","CLASSIFICATION_TYPE":"U","NORAD_CAT_ID":"46681","MEAN_MOTION_DOT":"0.00021072","TIME_SYSTEM":"UTC","GP_ID":"231564105","MEAN_MOTION_DDOT":"0.0000000000000","OBJECT_ID":"2020-073M","REF_FRAME":"TEME","RCS_SIZE":"LARGE","TLE_LINE1":"1 46681U 20073M   23130.67090273  .00021072  00000-0  14301-2 0  9993","APOAPSIS":"548.126","COUNTRY_CODE":"US","OBJECT_TYPE":"PAYLOAD","CENTER_NAME":"EARTH","FILE":"3904830"},{"ECCENTRICITY":"0.00010150","SEMIMAJOR_AXIS":"6925.417","OBJECT_NAME":"STARLINK-1776","ARG_OF_PERICENTER":"102.0897","PERIAPSIS":"546.579","LAUNCH_DATE":"2020-10-18","EPHEMERIS_TYPE":"0","ELEMENT_SET_NO":"999","EPOCH":"2023-05-10T13:32:10.942656","SITE":"AFETR","DECAY_DATE":null,"MEAN_ANOMALY":"258.0206","MEAN_ELEMENT_THEORY":"SGP4","BSTAR":"0.00205340000000","INCLINATION":"53.0520","REV_AT_EPOCH":"14105","TLE_LINE2":"2 46682  53.0520 218.9869 0001015 102.0897 258.0206 15.06377744141058","MEAN_MOTION":"15.06377744","PERIOD":"95.594","OBJECT_ID":"2020-073N","REF_FRAME":"TEME","GP_ID":"231562854","MEAN_MOTION_DDOT":"0.0000000000000","RCS_SIZE":"LARGE","RA_OF_ASC_NODE":"218.9869","CLASSIFICATION_TYPE":"U","TIME_SYSTEM":"UTC","NORAD_CAT_ID":"46682","MEAN_MOTION_DOT":"0.00030418","COUNTRY_CODE":"US","OBJECT_TYPE":"PAYLOAD","CENTER_NAME":"EARTH","TLE_LINE1":"1 46682U 20073N   23130.56401554  .00030418  00000-0  20534-2 0  9999","APOAPSIS":"547.985","FILE":"3904830"},{"SITE":"AFETR","MEAN_ELEMENT_THEORY":"SGP4","MEAN_ANOMALY":"262.6779","DECAY_DATE":null,"TLE_LINE2":"2 46684  53.0530 204.3389 0001193  97.4345 262.6779 15.06383533141250","REV_AT_EPOCH":"14125","PERIOD":"95.593","MEAN_MOTION":"15.06383533","BSTAR":"0.00171180000000","INCLINATION":"53.0530","PERIAPSIS":"546.438","ECCENTRICITY":"0.00011930","SEMIMAJOR_AXIS":"6925.399","OBJECT_NAME":"STARLINK-1780","ARG_OF_PERICENTER":"97.4345","ELEMENT_SET_NO":"999","EPOCH":"2023-05-10T11:40:03.467136","LAUNCH_DATE":"2020-10-18","EPHEMERIS_TYPE":"0","FILE":"3904555","OBJECT_TYPE":"PAYLOAD","CENTER_NAME":"EARTH","COUNTRY_CODE":"US","APOAPSIS":"548.090","TLE_LINE1":"1 46684U 20073Q   23130.48615124  .00025296  00000-0  17118-2 0  9994","RCS_SIZE":"LARGE","REF_FRAME":"TEME","OBJECT_ID":"2020-073Q","MEAN_MOTION_DDOT":"0.0000000000000","GP_ID":"231530226","TIME_SYSTEM":"UTC","MEAN_MOTION_DOT":"0.00025296","NORAD_CAT_ID":"46684","CLASSIFICATION_TYPE":"U","RA_OF_ASC_NODE":"204.3389"},{"BSTAR":"0.00135640000000","INCLINATION":"53.0524","TLE_LINE2":"2 46685  53.0524 219.3816 0001401  87.9132 272.2017 15.06367815141038","REV_AT_EPOCH":"14103","PERIOD":"95.594","MEAN_MOTION":"15.06367815","SITE":"AFETR","MEAN_ELEMENT_THEORY":"SGP4","DECAY_DATE":null,"MEAN_ANOMALY":"272.2017","LAUNCH_DATE":"2020-10-18","EPHEMERIS_TYPE":"0","ELEMENT_SET_NO":"999","EPOCH":"2023-05-10T11:23:25.096128","SEMIMAJOR_AXIS":"6925.447","ECCENTRICITY":"0.00014010","OBJECT_NAME":"STARLINK-1781","ARG_OF_PERICENTER":"87.9132","PERIAPSIS":"546.342","OBJECT_TYPE":"PAYLOAD","CENTER_NAME":"EARTH","COUNTRY_CODE":"US","APOAPSIS":"548.282","TLE_LINE1":"1 46685U 20073R   23130.47459602  .00019962  00000-0  13564-2 0  9995","FILE":"3904555","CLASSIFICATION_TYPE":"U","RA_OF_ASC_NODE":"219.3816","TIME_SYSTEM":"UTC","MEAN_MOTION_DOT":"0.00019962","NORAD_CAT_ID":"46685","REF_FRAME":"TEME","OBJECT_ID":"2020-073R","MEAN_MOTION_DDOT":"0.0000000000000","GP_ID":"231530473","RCS_SIZE":"LARGE"}];
